OBJECT_NAME,OBJECT_ID,EPOCH,MEAN_MOTION,ECCENTRICITY,INCLINATION,RA_OF_ASC_NODE,ARG_OF_PERICENTER,MEAN_ANOMALY,EPHEMERIS_TYPE,CLASSIFICATION_TYPE,NORAD_CAT_ID,ELEMENT_SET_NO,REV_AT_EPOCH,BSTAR,MEAN_MOTION_DOT,MEAN_MOTION_DDOT
POLYITAN-1,2014-033AJ,2026-07-23T07:45:34.517952,15.34444208,.00070647,98.0940,234.0351,39.5011,320.6744,0,U,40042,999,65913,.56161564E-3,.18684E-3,0
TIGRISAT,2014-033AK,2026-07-23T13:31:36.073344,14.85267687,.00480148,97.7874,353.7532,316.4292,43.3134,0,U,40043,999,65102,.15732356E-3,.1322E-4,0
AEROCUBE 6A,2014-033AM,2026-07-23T00:30:08.429760,14.98410696,.00361128,97.7275,10.6016,253.9554,105.7690,0,U,40045,999,65198,.51139375E-3,.6125E-4,0
AEROCUBE 6B,2014-033AN,2026-07-23T14:08:00.237696,14.99861367,.00382662,97.7204,11.0242,240.4770,119.2635,0,U,40046,999,65221,.46416157E-3,.5779E-4,0
CANX-4,2014-034C,2026-07-23T05:21:20.125440,14.81321101,.00113892,98.3072,80.8513,253.9790,106.0167,0,U,40055,999,64986,.10082226E-3,.73E-5,0
CANX-5,2014-034D,2026-07-23T11:47:32.686656,14.81338876,.00114055,98.3074,81.1750,253.2971,106.6989,0,U,40056,999,64071,.1010636E-3,.732E-5,0
UKUBE-1,2014-037F,2026-07-22T00:03:56.437056,15.14023415,.00031348,98.4254,209.9476,76.9955,283.1624,0,U,40074,999,65382,.4640491E-3,.8356E-4,0
BRITE-PL2 (HEWELIUSZ),2014-049B,2026-07-23T06:09:14.112576,14.94705750,.0013589,97.9122,316.5421,355.9834,4.1275,0,U,40119,999,64683,.17276837E-3,.1818E-4,0
AEROCUBE 5C,2015-058B,2026-07-23T05:50:28.958208,14.91618098,.01329412,64.7666,150.4059,49.3728,311.8856,0,U,40965,999,37103,.33073925E-3,.3771E-4,0
AEROCUBE 7,2015-058C,2026-07-23T03:15:34.553376,14.95972848,.01226341,64.7620,132.1954,47.7154,313.4278,0,U,40966,999,37133,.41272993E-3,.5223E-4,0
FOX-1A (AO-85),2015-058D,2026-07-23T07:15:55.096128,14.91129767,.01330713,64.7741,166.7325,42.7370,318.3997,0,U,40967,999,11895,.33668989E-3,.3792E-4,0
SINOD-D 1,2015-058E,2026-07-23T05:50:13.538400,14.96150866,.01217256,64.7744,145.9777,39.1153,321.8682,0,U,40968,999,12205,.43849411E-3,.5576E-4,0
SNAP-3 ALICE,2015-058G,2026-07-23T08:23:15.032256,15.69162068,.00268102,64.7487,338.0642,343.6595,16.3688,0,U,40970,999,12254,.14013116E-2,.170298E-2,0
LMRST-SAT,2015-058H,2026-07-23T08:01:32.696544,14.90742519,.01345753,64.7747,163.0413,44.7229,316.4640,0,U,40971,999,11894,.30327339E-3,.3374E-4,0
SNAP-3 EDDIE,2015-058J,2026-07-23T15:04:02.186976,15.70853462,.0028065,64.7405,327.5252,346.0444,13.9928,0,U,40972,999,12473,.1551796E-2,.203622E-2,0
PROPCUBE 3,2015-058K,2026-07-23T05:07:44.785056,14.94468458,.01263873,64.7681,139.9567,45.9491,315.1947,0,U,40973,999,12018,.37866203E-3,.4623E-4,0
BISONSAT,2015-058L,2026-07-23T07:11:00.265632,15.17090256,.00828034,64.7589,56.8012,32.2910,328.3244,0,U,40974,999,12109,.61313082E-3,.13145E-3,0
SNAP-3 JIMI,2015-058M,2026-07-23T03:09:45.655488,15.02693681,.01083851,64.7647,106.0113,41.2538,319.6705,0,U,40975,999,11962,.48883745E-3,.7258E-4,0
PROPCUBE 1 (FLORA),2015-058N,2026-07-23T09:21:14.383584,14.89362825,.01331127,64.7730,183.0206,46.9669,314.2500,0,U,40976,999,12165,.28809875E-3,.3064E-4,0
SINOD-D 3,2015-058P,2026-07-23T07:38:04.253856,14.94228208,.0121679,64.7714,162.9740,44.0271,317.0454,0,U,40977,999,12015,.40717454E-3,.4894E-4,0
RAVAN,2016-067B,2026-07-23T05:44:08.624544,15.58180668,.00034157,97.9829,98.0692,182.5920,177.5317,0,U,41849,999,53330,.85192921E-3,.64563E-3,0
CELTEE 1,2016-067C,2026-07-23T08:26:34.114272,15.19998381,.00025176,98.0633,73.3853,99.9194,260.2324,0,U,41850,999,53137,.22358782E-3,.4738E-4,0
OPTICUBE 04,2016-067D,2026-07-23T03:13:38.517312,15.09795677,.00155243,98.0668,58.2908,1.6575,358.4701,0,U,41851,999,53059,.12509527E-3,.1954E-4,0
AEROCUBE 8D,2016-067E,2026-07-23T10:47:02.074848,15.24855276,.00040006,98.0639,77.3820,35.6935,324.4568,0,U,41852,999,53159,.29484569E-3,.7246E-4,0
AEROCUBE 8C,2016-067F,2026-07-22T21:04:02.948160,15.25100953,.00037168,98.0510,73.9494,309.3108,50.7798,0,U,41853,999,53150,.30896067E-3,.7654E-4,0
CORVUS BC2,2017-042X,2026-07-23T09:31:06.381696,15.06490552,.00126168,97.4099,4.3505,354.6231,5.4859,0,U,42846,999,49251,.21181027E-3,.3073E-4,0
CORVUS BC1,2017-042Y,2026-07-23T09:17:37.040064,15.06656762,.00108359,97.4135,5.1792,330.8606,29.2016,0,U,42847,999,49254,.21626956E-3,.3152E-4,0
MAKERSAT 0,2017-073D,2026-07-23T02:07:11.196192,15.33243210,.01057257,97.4573,86.9049,144.3345,216.5022,0,U,43016,999,47196,.62103038E-3,.23835E-3,0
SIRION PATHFINDER-2,2018-099B,2026-07-23T02:51:54.511488,15.14823429,.00092966,97.4236,252.3249,164.7022,195.4493,0,U,43759,999,41806,.20478784E-3,.3743E-4,0
CORVUS BC4,2018-099K,2026-07-23T13:43:30.947808,15.12750007,.00069715,97.4051,246.4889,225.6264,134.4396,0,U,43767,999,41790,.2196086E-3,.3788E-4,0
